OBJECT_NAME,OBJECT_ID,EPOCH,MEAN_MOTION,ECCENTRICITY,INCLINATION,RA_OF_ASC_NODE,ARG_OF_PERICENTER,MEAN_ANOMALY,EPHEMERIS_TYPE,CLASSIFICATION_TYPE,NORAD_CAT_ID,ELEMENT_SET_NO,REV_AT_EPOCH,BSTAR,MEAN_MOTION_DOT,MEAN_MOTION_DDOT
ORESAT0.5,2024-149BK,2026-06-26T04:25:22.914336,15.45402518,.00045818,97.3726,263.3235,231.4732,128.6107,0,U,60525,999,10386,.47347353E-3,.22583E-3,0
DEIMOS,2024-149BL,2026-06-26T00:39:07.896672,15.44519858,.00044404,97.3788,263.2997,240.1520,119.9287,0,U,60526,999,10381,.47370961E-3,.21923E-3,0
CUAVA-2,2024-149BM,2026-06-25T16:21:09.848736,15.36298291,.00053662,97.3731,258.2153,256.0022,104.0626,0,U,60527,999,10347,.42015958E-3,.14805E-3,0
ERNST,2024-149BN,2026-06-26T00:15:22.686336,15.39424578,.00045423,97.3815,260.7971,255.3128,104.7614,0,U,60528,999,10363,.39596979E-3,.15437E-3,0
TORO,2024-149BQ,2026-06-26T03:11:37.381056,14.96450030,.00011038,97.6781,251.6340,90.4044,269.7304,0,U,60530,999,10129,.15009481E-3,.1646E-4,0
HYPSO-2,2024-149BR,2026-06-26T03:31:17.961024,14.98827200,.00008797,97.6812,253.2759,126.8038,233.3266,0,U,60531,999,10139,.24928096E-3,.2948E-4,0
LEMU NGE,2024-149BS,2026-06-26T03:41:57.399648,14.94987633,.00016091,97.6842,251.9325,58.5297,301.6081,0,U,60532,999,10129,.23257007E-3,.2486E-4,0
LEMUR-2-STELLA,2024-149BT,2026-06-26T00:23:57.331392,15.11984379,.0001511,97.6742,259.5106,97.1382,263.0020,0,U,60533,999,10183,.74200973E-3,.12681E-3,0
SATELIOT_2,2024-149BU,2026-06-26T04:29:55.878720,14.96391621,.00017877,97.6829,251.9797,83.5324,276.6101,0,U,60534,999,10131,.12471703E-3,.1356E-4,0
NIGHTJAR,2024-149BV,2026-06-25T16:04:10.965504,14.99055873,.00008351,97.6832,253.2577,109.6387,250.4927,0,U,60535,999,14414,.27519708E-3,.3281E-4,0
LEMUR-2-MARHISYAM,2024-149BW,2026-06-26T04:46:16.190400,15.11425100,.00032748,97.6882,260.1519,102.0033,258.1564,0,U,60536,999,10184,.67705108E-3,.11386E-3,0
SATELIOT_4,2024-149BX,2026-06-26T06:19:09.967584,14.96693878,.00023641,97.6732,251.5753,38.2049,321.9340,0,U,60537,999,10133,.13992362E-3,.154E-4,0
PICO-02A021,2024-149BY,2026-06-25T16:28:26.559264,15.03331863,.000436,97.6767,255.4450,8.5117,351.6182,0,U,60538,999,10101,.44409386E-3,.597E-4,0
ICEYE-X43,2024-149BZ,2026-06-26T04:04:35.864256,14.99680350,.00081472,97.6814,254.0121,58.7421,301.4599,0,U,60539,999,10146,.35414367E-3,.4312E-4,0
HAWK-10A,2024-149CA,2026-06-26T04:42:23.768352,14.96537683,.00043538,97.6891,252.9529,55.4182,304.7450,0,U,60540,999,10133,.1069684E-3,.1159E-4,0
UMBRA-09,2024-149CB,2026-06-26T05:29:52.980288,15.18308117,.00010093,97.6976,264.5902,238.4610,121.6525,0,U,60541,999,10209,.92569426E-3,.18953E-3,0
QPS-SAR-8 (AMATERU-IV),2024-149CC,2026-06-26T04:11:04.597728,15.04213210,.00042135,97.6660,256.2482,88.2896,271.8812,0,U,60542,999,10162,.50060122E-3,.6898E-4,0
ARCTIC WEATHER SATELLITE,2024-149CD,2026-06-26T03:41:27.665952,14.89795586,.00036629,97.6799,247.3632,87.1439,273.0198,0,U,60543,999,10063,.95019281E-4,.858E-5,0
CAPELLA-15 (ACADIA-5),2024-149CE,2026-06-26T05:45:24.407712,14.92402735,.00042621,97.6775,249.9166,51.9780,308.1823,0,U,60544,999,10120,.39487296E-3,.3989E-4,0
HAWK-10B,2024-149CF,2026-06-26T04:42:11.410560,14.96536677,.00064689,97.6810,252.2988,68.7155,291.4757,0,U,60545,999,10133,.11232421E-3,.122E-4,0
ICEYE-X39,2024-149CG,2026-06-26T03:35:41.773920,14.99945998,.00062595,97.6760,254.0509,95.6168,264.5769,0,U,60546,999,10146,.30103932E-3,.3681E-4,0
UMBRA-10,2024-149CH,2026-06-26T05:29:14.967744,15.18300409,.00003902,97.6981,264.6181,150.1660,209.9596,0,U,60547,999,10210,.87729592E-3,.17952E-3,0
ICEYE-X33,2024-149CJ,2026-06-26T04:03:51.287040,15.00938302,.00020077,97.7311,256.2617,80.9186,279.2265,0,U,60548,999,10155,.40893181E-3,.5152E-4,0
ICEYE-X40,2024-149CK,2026-06-26T04:29:05.249184,14.97967634,.00058478,97.6814,253.5387,55.4807,304.6967,0,U,60549,999,10142,.93044527E-4,.104E-4,0
SATELIOT_1,2024-149CL,2026-06-26T04:15:15.157728,14.98106776,.00080269,97.6760,252.9265,53.1392,307.0565,0,U,60550,999,10141,.15048959E-3,.1724E-4,0
BRO-14,2024-149CM,2026-06-26T03:46:05.517120,14.96196801,.00081665,97.6874,252.7735,73.6483,286.5636,0,U,60551,999,10133,.15512709E-3,.1692E-4,0
SATELIOT_3,2024-149CN,2026-06-26T03:40:32.391552,14.98087156,.00061286,97.6816,253.7010,66.5548,293.6318,0,U,60552,999,10142,.20767648E-3,.24E-4,0
BRO-15,2024-149CP,2026-06-25T16:06:48.338784,14.96176222,.00090368,97.6810,251.8906,64.5966,295.6189,0,U,60553,999,10127,.19286826E-3,.2117E-4,0
UM5-RIBAT,2024-149CQ,2026-06-25T19:18:37.536768,15.01119626,.00029004,97.6629,254.4884,48.2667,311.8805,0,U,60554,999,10148,.2715608E-3,.3418E-4,0
UM5-EOSAT,2024-149CR,2026-06-25T16:50:25.444896,15.01595589,.00090722,97.6740,255.3383,89.4302,270.7962,0,U,60555,999,10149,.35329645E-3,.4525E-4,0
